OSCAR 7 (AO-7)          
1 07530U 74089B   20031.75465661 -.00000022  00000-0  14303-3 0  9998
2 07530 101.7809   2.3727 0011929 269.8484 210.3934 12.53641837 68733
UOSAT 2 (UO-11)         
1 14781U 84021B   20031.52512232  .00000047  00000-0  11843-4 0  9996
2 14781  97.5973  50.3092 0007130 299.7593  60.2912 14.83138591911382
LUSAT (LO-19)           
1 20442U 90005G   20031.81543196  .00000011  00000-0  20287-4 0  9994
2 20442  98.6766 338.7238 0011362 195.1783 164.9061 14.32943751568844
ITAMSAT (IO-26)         
1 22826U 93061D   20031.48926985 -.00000018  00000-0  10951-4 0  9996
2 22826  98.9139  30.4543 0009751  51.4062 308.7992 14.30411408374323
RADIO ROSTO (RS-15)     
1 23439U 94085A   20031.91822499 -.00000049  00000-0 -18113-3 0  9999
2 23439  64.8170 108.6695 0146209  68.6650 292.9809 11.27568895 33510
JAS-2 (FO-29)           
1 24278U 96046B   20031.78044454  .00000007  00000-0  43398-4 0  9998
2 24278  98.5662 159.7607 0350569  11.6209 349.2766 13.53095356158262
TECHSAT 1B (GO-32)      
1 25397U 98043D   20031.55569346 -.00000003  00000-0  17801-4 0  9994
2 25397  98.7148 334.2106 0002366  93.8967 266.2482 14.23678458119934
ISS (ZARYA)             
1 25544U 98067A   20032.27814909  .00006838  00000-0  13144-3 0  9998
2 25544  51.6480 305.8711 0003140 212.1605 227.0150 15.49157716210798
PCSAT (NO-44)           
1 26931U 01043C   20031.72046930 -.00000024  00000-0  22535-4 0  9994
2 26931  67.0516 137.8284 0006616 263.1059  96.9290 14.30565722957377
SAUDISAT 1C (SO-50)     
1 27607U 02058C   20031.85942337 -.00000041  00000-0  14903-4 0  9991
2 27607  64.5552  75.0526 0064750 211.0552 148.6717 14.75606173920425
CUTE-1 (CO-55)          
1 27844U 03031E   20031.47233206  .00000035  00000-0  35363-4 0  9997
2 27844  98.6840  41.2773 0010930  94.7069 265.5357 14.22218402860489
CUBESAT XI-IV (CO-57)   
1 27848U 03031J   20031.52939737  .00000021  00000-0  29364-4 0  9998
2 27848  98.6912  41.8751 0010785 105.3998 254.8372 14.21807951860348
MOZHAYETS 4 (RS-22)     
1 27939U 03042A   20032.07123937  .00000039  00000-0  15560-4 0  9991
2 27939  98.0691 168.9015 0014239  71.6450 288.6290 14.66832876873876
CUBESAT XI-V            
1 28895U 05043F   20032.15042398  .00000078  00000-0  23856-4 0  9996
2 28895  97.9870 172.5351 0016561 358.4598   1.6551 14.63733323760757
CUTE-1.7+APD II (CO-65) 
1 32785U 08021C   20031.78767639  .00000189  00000-0  25941-4 0  9998
2 32785  97.5630  25.9463 0011902 225.4215 134.6032 14.88410576637391
DELFI-C3 (DO-64)        
1 32789U 08021G   20031.87535389  .00001423  00000-0  97826-4 0  9990
2 32789  97.4374  79.3734 0013466  71.2195 289.0493 15.07420173641087
SEEDS II (CO-66)        
1 32791U 08021J   20031.68969500  .00000312  00000-0  36893-4 0  9991
2 32791  97.5348  31.9820 0012824 195.6034 164.4792 14.90962053637859
YUBILEINY (RS-30)       
1 32953U 08025A   20031.93087598  .00000037  00000-0  19437-3 0  9999
2 32953  82.5048   3.4352 0019527 357.5639   2.5344 12.43094027530547
KKS-1 (KISEKI)          
1 33499U 09002H   20031.78945096  .00000095  00000-0  21949-4 0  9996
2 33499  98.3311 242.5356 0008665 196.2759 163.8172 14.75499911592280
SWISSCUBE               
1 35932U 09051B   20031.46577251  .00000095  00000-0  32415-4 0  9993
2 35932  98.6016 209.3531 0007566 182.4614 177.6547 14.56353072549749
BEESAT-1                
1 35933U 09051C   20031.73031368  .00000088  00000-0  30784-4 0  9997
2 35933  98.6027 211.4660 0005541 192.2610 167.8453 14.56433964549853
ITUPSAT1                
1 35935U 09051E   20031.78207083  .00000068  00000-0  26900-4 0  9996
2 35935  98.6136 211.7368 0007867 193.2765 166.8226 14.55585189549649
XIWANG-1 (HOPE-1)       
1 36122U 09072B   20031.91343410 -.00000055  00000-0 -34489-4 0  9997
2 36122 100.0844  28.6894 0007672 176.1706 183.9462 13.16352949486778
JUGNU                   
1 37839U 11058B   20031.70488719  .00000302  00000-0  19037-4 0  9994
2 37839  19.9627  38.1219 0018713 310.2121 205.8320 14.12670270429285
SRMSAT                  
1 37841U 11058D   20031.86791396  .00000282  00000-0  95383-5 0  9998
2 37841  19.9724  98.6088 0011769 171.5182 344.4205 14.10648523428713
M-CUBED & EXP-1 PRIME   
1 37855U 11061F   20031.73188955  .00001101  00000-0  62122-4 0  9999
2 37855 101.7268  49.1200 0172045 123.6074 238.1691 15.05962724450474
STRAND-1                
1 39090U 13009E   20031.79977478  .00000001  00000-0  15335-4 0  9990
2 39090  98.4669 238.7036 0008766 340.8974  19.1881 14.35115880362944
SOMP                    
1 39134U 13015E   20031.35557352  .00001300  00000-0  67242-4 0  9990
2 39134  64.8636   5.8056 0038360 266.2541  93.4200 15.20700204375054
BEESAT-3                
1 39135U 13015F   20031.95077217  .00001102  00000-0  62755-4 0  9998
2 39135  64.8670  25.4080 0045680 267.7757  91.8138 15.17893164374736
BEESAT-2                
1 39136U 13015G   20031.61327852  .00000800  00000-0  49579-4 0  9998
2 39136  64.8705  31.0207 0030693 278.8268  80.9383 15.17303448374202
ZACUBE-1 (TSHEPISOSAT)  
1 39417U 13066B   20031.76121786  .00000210  00000-0  32699-4 0  9990
2 39417  97.5622  37.4748 0059151  10.9151 349.3331 14.81214342334655
GOMX-1                  
1 39430U 13066Q   20032.19754256  .00000101  00000-0  27792-4 0  9994
2 39430  97.7768 339.1330 0149587 257.0326 101.4139 14.59343812329784
CUBEBUG-2 (LO-74)       
1 39440U 13066AA  20031.73479213  .00000220  00000-0  37275-4 0  9990
2 39440  97.6185  21.9529 0081543  67.8419 293.1421 14.75950453332263
FUNCUBE-1 (AO-73)       
1 39444U 13066AE  20032.10759101  .00000261  00000-0  38282-4 0  9997
2 39444  97.5581  39.9450 0058048   2.6899 357.4616 14.82054168333617
UWE-3                   
1 39446U 13066AG  20031.68842290  .00000225  00000-0  36289-4 0  9998
2 39446  97.5901  29.0956 0070948  40.2631 320.3804 14.78485916332218
SPROUT                  
1 39770U 14029E   20032.07165741  .00000625  00000-0  74828-4 0  9996
2 39770  97.8913 139.0403 0009985  62.9430 297.2809 14.87594666308633
UNISAT-6                
1 40012U 14033C   20031.88049928  .00000141  00000-0  28243-4 0  9991
2 40012  97.7276 253.3111 0059706  84.7100 276.0918 14.74062187302154
DUCHIFAT-1              
1 40021U 14033M   20031.75729502  .00000462  00000-0  52745-4 0  9990
2 40021  97.9359 322.2246 0013601  26.9101 333.2819 14.90799232305375
QB50P1                  
1 40025U 14033R   20031.77070265  .00000201  00000-0  27312-4 0  9994
2 40025  97.9126 316.1341 0013331  37.5859 322.6287 14.89061818304603
NUDT-PHONESAT           
1 40900U 15049B   20032.00969109  .00001778  00000-0  77172-4 0  9994
2 40900  97.4344  44.1781 0014326 104.8170 308.1003 15.23560237242263
ZDPS 2A                 
1 40901U 15049C   20032.04456413  .00000539  00000-0  29752-4 0  9993
2 40901  97.4614  39.6359 0014769 127.4787 308.1114 15.18046303241720
ZDPS 2B                 
1 40902U 15049D   20032.08897339  .00000705  00000-0  37936-4 0  9992
2 40902  97.4590  37.0104 0014969 124.8567 306.8230 15.17977015241707
XW-2A                   
1 40903U 15049E   20032.13086823  .00001594  00000-0  38563-4 0  9991
2 40903  97.3089  80.8696 0014638  47.9341  10.2040 15.42574431245308
KAITUO 1A               
1 40904U 15049F   20032.06531716  .00000560  00000-0  32916-4 0  9998
2 40904  97.4735  35.2819 0015664 135.0815 296.4302 15.15582667241433
2015-049G               
1 40905U 15049G   20032.04634728  .00000441  00000-0  27498-4 0  9991
2 40905  97.4797  32.5889 0016914 131.7404 300.8060 15.14450321241289
XW-2C                   
1 40906U 15049H   20032.01659140  .00000274  00000-0  17761-4 0  9990
2 40906  97.4736  35.4309 0016147 126.8044 294.8979 15.15908666241434
XW-2D                   
1 40907U 15049J   20032.09828683  .00000333  00000-0  20671-4 0  9999
2 40907  97.4719  35.2001 0015632 124.1519 306.9627 15.16121495241465
LILACSAT-2              
1 40908U 15049K   20032.03420285 -.00000012  00000-0  29516-5 0  9993
2 40908  97.4862  33.6792 0017147 132.4993 304.4076 15.13942353241209
XW-2F                   
1 40910U 15049M   20032.10142878  .00000637  00000-0  34881-4 0  9995
2 40910  97.4664  37.5648 0016309 116.2423 315.6629 15.17674816241503
XW-2B                   
1 40911U 15049N   20032.07552669  .00000507  00000-0  29771-4 0  9993
2 40911  97.4739  35.8637 0015456 124.6318 306.1521 15.16050330241351
KAITUO 1B               
1 40912U 15049P   20032.11315124  .00000893  00000-0  44515-4 0  9993
2 40912  97.4499  41.5642 0016554  98.4044 335.1359 15.20035195241852
TIANWANG 1C (TW-1C)     
1 40926U 15051B   20032.13307013  .00015484  00000-0  18636-3 0  9997
2 40926  97.1053  83.3460 0005008 233.3717 183.3186 15.60897145245570
TIANWANG 1A (TW-1A)     
1 40928U 15051D   20032.17229439  .00002517  00000-0  61145-4 0  9995
2 40928  97.1237  63.2955 0009746 336.9758  96.7426 15.41885071244218
LAPAN-A2                
1 40931U 15052B   20032.17104352  .00000574  00000-0 -90566-5 0  9998
2 40931   5.9945 234.3432 0012528 134.3905 225.7744 14.76623900234935
E-ST@R-II               
1 41459U 16025D   20032.21332819  .00001247  00000-0  67565-4 0  9990
2 41459  98.0975 135.1872 0164720 313.7357  45.0344 15.06008715206785
AAUSAT 4                
1 41460U 16025E   20032.08812046  .00001828  00000-0  94255-4 0  9993
2 41460  98.0938 136.9256 0154605 304.5297  54.1427 15.08125891206930
NUSAT-1 (FRESCO)        
1 41557U 16033B   20032.17143979  .00001108  00000-0  43614-4 0  9995
2 41557  97.4083 123.3134 0012882 207.7290 152.3263 15.27696685204812
BEESAT-4                
1 41619U 16040W   20031.92061830  .00001154  00000-0  51031-4 0  9992
2 41619  97.3395  94.5969 0009776 309.5446  50.4927 15.23646990188459
CAS-2T & KS-1Q          
1 41847U 16066G   20031.85840330  .00000027  00000-0  15512-4 0  9997
2 41847  98.6760  80.8398 0364647 278.8553  77.1519 14.38037038169649
NAYIF-1 (EO-88)         
1 42017U 17008BX  20031.93880517  .00001324  00000-0  54115-4 0  9997
2 42017  97.3776 101.4220 0007906  89.2271 270.9873 15.26099693164575
MAX VALIER SAT          
1 42778U 17036P   20031.91400136  .00000750  00000-0  35407-4 0  9990
2 42778  97.3255  89.2214 0013413 140.7784 219.4427 15.22373910144809
RADFXSAT (FOX-1B)       
1 43017U 17073E   20031.49690165  .00000333  00000-0  31051-4 0  9992
2 43017  97.7270 309.0358 0258405 139.5431 222.5315 14.78781473118771
FOX-1D (AO-92)          
1 43137U 18004AC  20031.46834257  .00000906  00000-0  40521-4 0  9997
2 43137  97.4623 103.4763 0009440 170.8366 189.3045 15.23851417114039
ES'HAIL 2               
1 43700U 18090A   20031.74121192  .00000150  00000-0  00000-0 0  9991
2 43700   0.0149  92.9691 0002045 239.8493  90.2103  1.00270063  4328
FOX-1CLIFF (AO-95)      
1 43770U 18099N   20032.16082586  .00000329  00000-0  35438-4 0  9992
2 43770  97.7220 105.8390 0013198 298.0219  61.9666 14.94901201 63407
ITASAT 1                
1 43786U 18099AE  20031.92175289 -.00000120  00000-0 -55908-5 0  9991
2 43786  97.7232 105.9243 0013897 291.7100  68.2640 14.95250161 63382
JY1SAT (JO-97)          
1 43803U 18099AX  20032.15243558  .00000653  00000-0  64268-4 0  9999
2 43803  97.7194 106.0054 0013666 291.5087  68.4677 14.95410773 63410
PSAT2 (NO-104)          
1 44354U 19036R   20031.86385225  .00007107  00000-0  10368-3 0  9990
2 44354  28.5322 202.4796 0374307 284.4153  71.5183 15.00895454 33108
BRICSAT2 (NO-103)       
1 44355U 19036S   20032.12771693  .00013587  00000-0  19810-3 0  9999
2 44355  28.5323 197.8077 0361935 292.0526  64.2005 15.03989347 33178
JAISAT-1                
1 44419U 19038F   20031.76428275  .00000812  00000-0  50183-4 0  9992
2 44419  97.5207 355.1554 0020224 243.7202 116.1951 15.12546689 31782
DUCHIFAT-3              
1 44854U 19089C   20032.14382627  .00000204  00000-0  22988-4 0  9991
2 44854  36.9659 189.7586 0008678  18.9894 341.1171 14.98958279  7688
